[{"OBJECT_NAME":"YAOGAN-14","OBJECT_ID":"2012-021A","EPOCH":"2026-03-09T23:13:16.463424","MEAN_MOTION":15.26486019,"ECCENTRICITY":0.00056417,"INCLINATION":97.2863,"RA_OF_ASC_NODE":208.4378,"ARG_OF_PERICENTER":161.6562,"MEAN_ANOMALY":198.4882,"EPHEMERIS_TYPE":0,"CLASSIFICATION_TYPE":"U","NORAD_CAT_ID":38257,"ELEMENT_SET_NO":999,"REV_AT_EPOCH":77067,"BSTAR":0.00037795498,"MEAN_MOTION_DOT":9.798e-5,"MEAN_MOTION_DDOT":0},{"OBJECT_NAME":"STARLINK-30125","OBJECT_ID":"2023-067P","EPOCH":"2026-03-09T21:51:10.089216","MEAN_MOTION":15.2757641,"ECCENTRICITY":9.573e-5,"INCLINATION":42.9986,"RA_OF_ASC_NODE":269.8264,"ARG_OF_PERICENTER":273.72,"MEAN_ANOMALY":86.3542,"EPHEMERIS_TYPE":0,"CLASSIFICATION_TYPE":"U","NORAD_CAT_ID":56701,"ELEMENT_SET_NO":999,"REV_AT_EPOCH":15573,"BSTAR":6.9363402e-5,"MEAN_MOTION_DOT":1.647e-5,"MEAN_MOTION_DDOT":0}]
